[{"OBJECT_NAME":"LUSAT (LO-19)","OBJECT_ID":"1990-005G","EPOCH":"2026-03-09T14:54:14.260896","MEAN_MOTION":14.34087969,"ECCENTRICITY":0.001234,"INCLINATION":98.8938,"RA_OF_ASC_NODE":87.6461,"ARG_OF_PERICENTER":134.6824,"MEAN_ANOMALY":225.5367,"EPHEMERIS_TYPE":0,"CLASSIFICATION_TYPE":"U","NORAD_CAT_ID":20442,"ELEMENT_SET_NO":999,"REV_AT_EPOCH":88812,"BSTAR":8.4338e-5,"MEAN_MOTION_DOT":1.89e-6,"MEAN_MOTION_DDOT":0},{"OBJECT_NAME":"SL-8 R\/B","OBJECT_ID":"1985-006B","EPOCH":"2026-03-09T22:41:04.465248","MEAN_MOTION":14.37783068,"ECCENTRICITY":0.00184373,"INCLINATION":74.0432,"RA_OF_ASC_NODE":260.6783,"ARG_OF_PERICENTER":178.4565,"MEAN_ANOMALY":288.736,"EPHEMERIS_TYPE":0,"CLASSIFICATION_TYPE":"U","NORAD_CAT_ID":15483,"ELEMENT_SET_NO":999,"REV_AT_EPOCH":15406,"BSTAR":0.00012950251,"MEAN_MOTION_DOT":3.64e-6,"MEAN_MOTION_DDOT":0}]
